TJS-1                   
1 40892U 15046A   22030.07241979 -.00000161  00000+0  00000+0 0  9992
2 40892   0.0924 283.2917 0004783  82.8584 304.1606  1.00269789 23523
EXPRESS-AM8             
1 40895U 15048A   22029.68452146 -.00000114  00000+0  00000+0 0  9990
2 40895   0.0341 238.4349 0000047 300.4671 182.4013  1.00271293 23347
BEIDOU 20               
1 40938U 15053A   22030.10664778 -.00000099  00000+0  00000+0 0  9991
2 40938  51.7127 277.4635 0042651 194.1028 152.3620  1.00277125 23319
SKY MUSTER 1 (NBN1A)    
1 40940U 15054A   22030.50662382 -.00000285  00000+0  00000+0 0  9995
2 40940   0.0108  50.2214 0001561 265.5835 136.5391  1.00269169 23220
ARSAT 2                 
1 40941U 15054B   22029.84614741 -.00000228  00000+0  00000+0 0  9994
2 40941   0.0653 272.3098 0001559  34.1107  46.2258  1.00271549 23282
MORELOS 3               
1 40946U 15056A   22029.67379212 -.00000038  00000+0  00000+0 0  9992
2 40946   3.9140 332.9929 0003304 359.4968 285.8277  1.00271916 23240
APSTAR 9                
1 40982U 15059A   22029.46004154 -.00000268  00000+0  00000+0 0  9997
2 40982   0.0368 252.9224 0001053  40.2774 143.0744  1.00269619 23115
TURKSAT 4B              
1 40984U 15060A   22030.44643528  .00000109  00000+0  00000+0 0  9998
2 40984   0.0221  76.6578 0001535 234.1041  29.5774  1.00271136 23066
CHINASAT 2C (ZX 2C)     
1 41021U 15063A   22030.09826353 -.00000327  00000+0  00000+0 0  9997
2 41021   0.0480 261.4066 0001721 109.2188 257.4439  1.00268833 22972
GSAT-15                 
1 41028U 15065A   22030.09910313 -.00000262  00000+0  00000+0 0  9994
2 41028   0.0498 264.3022 0000848  12.2226 341.9322  1.00272403 22829
BADR-7 (ARABSAT-6B)     
1 41029U 15065B   22030.29808053  .00000139  00000+0  00000+0 0  9996
2 41029   0.0435 235.9796 0004007  14.8638  11.9245  1.00272292 22878
LAOSAT 1                
1 41034U 15067A   22029.88792497 -.00000347  00000+0  00000+0 0  9993
2 41034   0.0331 198.1283 0001838  78.5536 300.5648  1.00272298 22828
TELSTAR 12V             
1 41036U 15068A   22030.20743858 -.00000124  00000+0  00000+0 0  9994
2 41036   0.0247  81.2294 0001977 239.5667 228.3042  1.00270267 22692
CHINASAT 1C (ZX 1C)     
1 41103U 15073A   22029.87850537 -.00000156  00000+0  00000+0 0  9994
2 41103   3.0461  86.7855 0000618 139.6750 300.2754  1.00271035 22622
ELEKTRO-L 2             
1 41105U 15074A   22030.21827583 -.00000123  00000+0  00000+0 0  9996
2 41105   2.6415  89.7784 0001328 152.5966 311.1669  1.00271270 22485
COSMOS 2513             
1 41121U 15075A   22030.16542160 -.00000143  00000+0  00000+0 0  9996
2 41121   0.0543 113.9246 0002169 171.5869 343.6438  1.00272006 22568
EXPRESS-AMU1            
1 41191U 15082A   22030.30008655  .00000150  00000+0  00000+0 0  9990
2 41191   0.0124  89.4944 0002258 238.2898 305.8085  1.00272207 22475
GAOFEN 4                
1 41194U 15083A   22030.23660535 -.00000340  00000+0  00000+0 0  9999
2 41194   0.0871 107.7242 0002350  70.0166 142.5359  1.00274225 22455
BELINTERSAT-1           
1 41238U 16001A   22030.08788456  .00000103  00000+0  00000+0 0  9991
2 41238   0.0310 253.0560 0001605 313.6306   5.7224  1.00270687 22217
IRNSS-1E                
1 41241U 16003A   22028.59260981 -.00000320  00000+0  00000+0 0  9990
2 41241  29.6667  86.7983 0021137 189.4589 176.6829  1.00269489 22034
EUTELSAT 9B             
1 41310U 16005A   22030.19632703  .00000056  00000+0  00000+0 0  9998
2 41310   0.0274  53.5047 0004956 231.8927 283.6537  1.00269681 22072
SES-9                   
1 41380U 16013A   22030.44501527 -.00000351  00000+0  00000+0 0  9990
2 41380   0.0473 270.2509 0001161 125.2537   2.6296  1.00269476 21723
EUTELSAT 65 WEST A      
1 41382U 16014A   22030.26680819 -.00000281  00000+0  00000+0 0  9997
2 41382   0.0491  23.9642 0001816 294.0737 202.2633  1.00269222 21610
IRNSS-1F                
1 41384U 16015A   22030.22752097  .00000153  00000+0  00000+0 0  9991
2 41384   2.0421 167.8728 0021332 184.8402 251.0202  1.00275396 21646
BEIDOU IGSO-6           
1 41434U 16021A   22029.87997027 -.00000138  00000+0  00000+0 0  9991
2 41434  57.8952  54.2725 0044957 217.9343 269.1970  1.00268924 21444
IRNSS-1G                
1 41469U 16027A   22029.95993538 -.00000340  00000+0  00000+0 0  9992
2 41469   1.9900 171.0834 0004549 258.8096 174.3886  1.00273997 21131
JCSAT-2B                
1 41471U 16028A   22030.24771532 -.00000171  00000+0  00000+0 0  9990
2 41471   0.0175  71.9932 0001671 236.1245  64.4771  1.00270636 21053
THAICOM 8               
1 41552U 16031A   22030.45210446 -.00000127  00000+0  00000+0 0  9990
2 41552   0.1110  89.6680 0003895 257.4722  23.7368  1.00271628 20753
INTELSAT 31 (IS-31)     
1 41581U 16035A   22030.48174197 -.00000157  00000+0  00000+0 0  9994
2 41581   0.0056 112.5667 0002383  80.8418  14.6234  1.00270488 20658
BEIDOU-2 G7             
1 41586U 16037A   22030.13852042 -.00000360  00000+0  00000+0 0  9991
2 41586   1.6704  67.3607 0008594   0.5947 221.7845  1.00273202 20743
ABS-2A (MONGOLSAT-1)    
1 41588U 16038A   22029.80541646 -.00000087  00000+0  00000+0 0  9997
2 41588   0.0106  65.2233 0001377 171.8654 256.5795  1.00270014 20664
EUTELSAT 117 WEST B     
1 41589U 16038B   22029.69543424 -.00000014  00000+0  00000+0 0  9991
2 41589   0.0061 142.6317 0000178 112.2073   7.4253  1.00270096 20639
BRISAT                  
1 41591U 16039A   22029.89228587 -.00000201  00000+0  00000+0 0  9995
2 41591   0.0129  63.2785 0001799 246.6347 290.9128  1.00269016 20584
ECHOSTAR 18             
1 41592U 16039B   22029.85007222 -.00000285  00000+0  00000+0 0  9995
2 41592   0.0176  77.2902 0001200 236.9653  59.4679  1.00270743 20580
MUOS-5                  
1 41622U 16041A   22029.68296493 -.00000124  00000+0  00000+0 0  9995
2 41622   5.9334 302.0110 0195795 233.2497  94.4565  1.00271088 21041
TIANTONG-1 1            
1 41725U 16048A   22030.16544400 -.00000318  00000+0  00000+0 0  9990
2 41725   2.3482 352.1500 0004631 349.6101 308.5789  1.00271191 20233
JCSAT-16                
1 41729U 16050A   22029.96115646 -.00000311  00000+0  00000+0 0  9992
2 41729   0.0909  91.3867 0000586 353.5550 166.2249  1.00268142 20020
USA 270                 
1 41744U 16052A   22020.32986111 -.00000307  00000+0  00000+0 0  9990
2 41744   0.0989  97.9307 0000413  56.0637 182.7172  1.00452419  2600
INTELSAT 36 (IS-36)     
1 41747U 16053A   22030.16297947 -.00000029  00000+0  00000+0 0  9990
2 41747   0.0093  38.3261 0000706 327.6427 250.5408  1.00270847 19906
INTELSAT 33E (IS-33E)   
1 41748U 16053B   22030.16132233  .00000045  00000+0  00000+0 0  9994
2 41748   0.0257   0.5126 0001373 310.7063 296.1906  1.00270858 20183
INSAT-3DR               
1 41752U 16054A   22030.45123227 -.00000083  00000+0  00000+0 0  9998
2 41752   0.1114  97.3651 0012665 178.2127  90.5017  1.00270387 19760
GSAT-18                 
1 41793U 16060A   22030.10118525 -.00000081  00000+0  00000+0 0  9995
2 41793   0.0123 293.3977 0000985  20.0123 286.2982  1.00271658 19492
SKY MUSTER 2 (NBN1B)    
1 41794U 16060B   22029.96290081 -.00000249  00000+0  00000+0 0  9992
2 41794   0.0186  74.4306 0001245 241.1470 305.0496  1.00268625 19532
HIMAWARI-9              
1 41836U 16064A   22029.89036706 -.00000279  00000+0  00000+0 0  9990
2 41836   0.0131 136.5287 0000299 207.6806 246.1620  1.00269791 19152
SHIJIAN-17 (SJ-17)      
1 41838U 16065A   22030.73916076 -.00000371  00000+0  00000+0 0  9998
2 41838   1.6836  90.9955 0001245 335.1417  87.4303  1.00273331 19200
GOES 16                 
1 41866U 16071A   22030.56487765 -.00000254  00000+0  00000+0 0  9995
2 41866   0.0836 263.8721 0000922 102.1202 251.9003  1.00271143 19070
TIANLIAN 1-04           
1 41869U 16072A   22029.82582556  .00000027  00000+0  00000+0 0  9997
2 41869   0.1107 254.3155 0018896 220.0727 128.7459  1.00269215 19288
WGS F8 (USA 272)        
1 41879U 16075A   22030.24771532 -.00000208  00000+0  00000+0 0  9995
2 41879   0.0203  78.1403 0001545 332.3680 317.9078  1.00271239 18895
FENGYUN 4A              
1 41882U 16077A   22030.03452104 -.00000334  00000+0  00000+0 0  9999
2 41882   0.0764  76.5232 0005943 350.5931 179.1908  1.00275041 18941
ECHOSTAR 19             
1 41893U 16079A   22030.50594799 -.00000144  00000+0  00000+0 0  9991
2 41893   0.0142  81.5273 0001035 231.7696 261.4165  1.00270944 18701
JCSAT-15                
1 41903U 16082A   22030.51552369 -.00000357  00000+0  00000+0 0  9991
2 41903   0.0166  70.9458 0001292 256.6452  97.7520  1.00270904 18753
STAR ONE D1             
1 41904U 16082B   22030.50396767 -.00000217  00000+0  00000+0 0  9994
2 41904   0.0072  10.6007 0002244 300.1357 276.3740  1.00273144 18756
TJS-2                   
1 41911U 17001A   22030.44974956 -.00000012  00000+0  00000+0 0  9992
2 41911   0.0366  42.1760 0003620 139.6962 176.2245  1.00269479 18699
SBIRS GEO-4 (USA 273)   
1 41937U 17004A   22030.49106404  .00000128  00000+0  00000+0 0  9990
2 41937   2.6065 316.4274 0001741 353.4208 197.2045  1.00271529 18576
HISPASAT 36W-1          
1 41942U 17006A   22030.07044090 -.00000249  00000+0  00000+0 0  9999
2 41942   0.0095 355.8789 0001015 319.6484 163.0920  1.00269595 18493
TELKOM 3S               
1 41944U 17007A   22029.88592646 -.00000366  00000+0  00000+0 0  9994
2 41944   0.0130 100.5055 0001905 201.6417 263.8585  1.00272097 18105
INTELSAT 32E (IS-32E)   
1 41945U 17007B   22030.05326964 -.00000273  00000+0  00000+0 0  9991
2 41945   0.0165  70.6774 0000361  36.1736 358.3958  1.00269692 18212
ECHOSTAR 23             
1 42070U 17014A   22029.84876395 -.00000273  00000+0  00000+0 0  9992
2 42070   0.0178  76.2874 0001941 229.1684  61.2387  1.00272330 17892
WGS F9 (USA 275)        
1 42075U 17016A   22030.07688404 -.00000101  00000+0  00000+0 0  9998
2 42075   0.0190  81.9489 0000407   2.3297  60.6522  1.00271274 17893
